NORAD_CAT_ID,OBJECT_NAME,OBJECT_TYPE,EPOCH,MEAN_MOTION,ECCENTRICITY,INCLINATION,RA_OF_ASC_NODE,ARG_OF_PERICENTER,MEAN_ANOMALY,BSTAR,MEAN_MOTION_DOT,MEAN_MOTION_DDOT,TLE_LINE0,TLE_LINE1,TLE_LINE2,SEMIMAJOR_AXIS,PERIOD,APOGEE,PERIGEE,DECAYED
51888.0,STARLINK-3536,PAYLOAD,2023-09-21 11:56:14,15.08839981,0.0001382,53.2182,80.2379,85.5306,274.5844,8.638e-05,1.087e-05,0.0,0 STARLINK-3536,1 51888U 22022AN  23264.49739372  .00001087  00000-0  86380-4 0  9994,2 51888  53.2182  80.2379 0001382  85.5306 274.5844 15.08839981 87352,6917.88,95.438,540.701,538.789,0.0
51888.0,STARLINK-3536,PAYLOAD,2023-09-21 18:17:47,15.08848034,0.0001278,53.2168,79.0465,85.2131,274.9007,0.00015682,2.209e-05,0.0,0 STARLINK-3536,1 51888U 22022AN  23264.76235064  .00002209  00000-0  15682-3 0  9996,2 51888  53.2168  79.0465 0001278  85.2131 274.9007 15.08848034 87393,6917.856,95.437,540.605,538.837,0.0
51888.0,STARLINK-3536,PAYLOAD,2023-09-22 11:47:01,15.08840477,0.0001307,53.2166,75.7755,89.9884,270.1258,0.00017425,2.486e-05,0.0,0 STARLINK-3536,1 51888U 22022AN  23265.49099523  .00002486  00000-0  17425-3 0  9999,2 51888  53.2166  75.7755 0001307  89.9884 270.1258 15.08840477 87507,6917.879,95.438,540.648,538.84,0.0
51888.0,STARLINK-3536,PAYLOAD,2023-09-22 18:08:34,15.08845934,0.0001242,53.2165,74.5874,78.871,281.2422,0.00024284,3.58e-05,0.0,0 STARLINK-3536,1 51888U 22022AN  23265.75595325  .00003580  00000-0  24284-3 0  9996,2 51888  53.2165  74.5874 0001242  78.8710 281.2422 15.08845934 87541,6917.862,95.437,540.586,538.868,0.0
51888.0,STARLINK-3536,PAYLOAD,2023-09-23 17:59:21,15.08847684,0.0001291,53.2166,70.1265,79.0644,281.0494,9.522e-05,1.228e-05,0.0,0 STARLINK-3536,1 51888U 22022AN  23266.74955025  .00001228  00000-0  95220-4 0  9999,2 51888  53.2166  70.1265 0001291  79.0644 281.0494 15.08847684 87698,6917.857,95.437,540.615,538.829,0.0
51888.0,STARLINK-3536,PAYLOAD,2023-09-24 11:28:35,15.08839014,0.0001366,53.217,66.8571,74.4252,285.689,-1.4229e-05,-5.14e-06,0.0,0 STARLINK-3536,1 51888U 22022AN  23267.47819423 -.00000514  00000-0 -14229-4 0  9990,2 51888  53.2170  66.8571 0001366  74.4252 285.6890 15.08839014 87803,6917.883,95.438,540.693,538.803,0.0
51888.0,STARLINK-3536,PAYLOAD,2023-09-24 14:39:22,15.0884326,0.0001235,53.2179,66.2604,77.7156,282.3975,5.9972e-05,6.67e-06,0.0,0 STARLINK-3536,1 51888U 22022AN  23267.61067333  .00000667  00000-0  59972-4 0  9992,2 51888  53.2179  66.2604 0001235  77.7156 282.3975 15.08843260 87825,6917.87,95.437,540.59,538.881,0.0
51888.0,STARLINK-3536,PAYLOAD,2023-09-24 21:00:54,15.08849788,0.0001252,53.2181,65.0703,76.0122,284.1009,0.00011242,1.502e-05,0.0,0 STARLINK-3536,1 51888U 22022AN  23267.87562760  .00001502  00000-0  11242-3 0  9990,2 51888  53.2181  65.0703 0001252  76.0122 284.1009 15.08849788 87862,6917.85,95.437,540.582,538.849,0.0
51888.0,STARLINK-3536,PAYLOAD,2023-09-25 03:22:26,15.08846193,0.0001251,53.2174,63.8821,74.4807,285.6323,0.00011061,1.473e-05,0.0,0 STARLINK-3536,1 51888U 22022AN  23268.14058913  .00001473  00000-0  11061-3 0  9997,2 51888  53.2174  63.8821 0001251  74.4807 285.6323 15.08846193 87909,6917.861,95.437,540.592,538.861,0.0
51888.0,STARLINK-3536,PAYLOAD,2023-09-25 17:40:55,15.0884339,0.0001432,53.2187,61.2057,77.6626,282.4526,3.2925e-05,2.36e-06,0.0,0 STARLINK-3536,1 51888U 22022AN  23268.73675432  .00000236  00000-0  32925-4 0  9992,2 51888  53.2187  61.2057 0001432  77.6626 282.4526 15.08843390 87996,6917.87,95.437,540.726,538.744,0.0
51888.0,STARLINK-3536,PAYLOAD,2023-09-26 09:34:47,15.08841243,0.0001047,53.2191,58.2352,64.9544,295.1556,-0.00011434,-2.107e-05,0.0,0 STARLINK-3536,1 51888U 22022AN  23269.39916325 -.00002107  00000-0 -11434-3 0  9996,2 51888  53.2191  58.2352 0001047  64.9544 295.1556 15.08841243 88096,6917.877,95.437,540.466,539.017,0.0
51888.0,STARLINK-3536,PAYLOAD,2023-09-26 14:20:57,15.08834671,0.000111,53.2183,57.3398,88.1675,271.9444,-1.2536e-05,-4.87e-06,0.0,0 STARLINK-3536,1 51888U 22022AN  23269.59788429 -.00000487  00000-0 -12536-4 0  9994,2 51888  53.2183  57.3398 0001110  88.1675 271.9444 15.08834671 88120,6917.897,95.438,540.53,538.994,0.0
51888.0,STARLINK-3536,PAYLOAD,2023-09-26 19:07:06,15.08839099,0.0001303,53.2174,56.4464,93.865,266.2491,5.6942e-05,6.18e-06,0.0,0 STARLINK-3536,1 51888U 22022AN  23269.79659867  .00000618  00000-0  56942-4 0  9992,2 51888  53.2174  56.4464 0001303  93.8650 266.2491 15.08839099 88155,6917.883,95.438,540.65,538.847,0.0
51888.0,STARLINK-3536,PAYLOAD,2023-09-27 09:25:34,15.08837279,0.0001439,53.2184,53.7715,84.7508,275.3648,0.00013354,1.838e-05,0.0,0 STARLINK-3536,1 51888U 22022AN  23270.39276300  .00001838  00000-0  13354-3 0  9991,2 51888  53.2184  53.7715 0001439  84.7508 275.3648 15.08837279 88249,6917.889,95.438,540.749,538.758,0.0
51888.0,STARLINK-3536,PAYLOAD,2023-09-27 17:22:30,15.0884897,0.0001315,53.2169,52.2837,91.8163,268.298,0.0003242,4.877e-05,0.0,0 STARLINK-3536,1 51888U 22022AN  23270.72395835  .00004877  00000-0  32420-3 0  9994,2 51888  53.2169  52.2837 0001315  91.8163 268.2980 15.08848970 88295,6917.853,95.437,540.628,538.808,0.0
51888.0,STARLINK-3536,PAYLOAD,2023-09-28 09:16:21,15.08838852,0.0001235,53.2166,49.3114,82.6556,277.4576,0.00012375,1.682e-05,0.0,0 STARLINK-3536,1 51888U 22022AN  23271.38636274  .00001682  00000-0  12375-3 0  9990,2 51888  53.2166  49.3114 0001235  82.6556 277.4576 15.08838852 88394,6917.884,95.438,540.603,538.895,0.0
51888.0,STARLINK-3536,PAYLOAD,2023-09-28 14:02:31,15.08840311,0.0001205,53.217,48.4197,79.7612,280.3516,0.00016141,2.282e-05,0.0,0 STARLINK-3536,1 51888U 22022AN  23271.58508260  .00002282  00000-0  16141-3 0  9997,2 51888  53.2170  48.4197 0001205  79.7612 280.3516 15.08840311 88421,6917.879,95.438,540.578,538.911,0.0
51888.0,STARLINK-3536,PAYLOAD,2023-09-28 15:37:54,15.08840831,0.0001219,53.217,48.1224,80.5164,279.5966,0.00015722,2.215e-05,0.0,0 STARLINK-3536,1 51888U 22022AN  23271.65132220  .00002215  00000-0  15722-3 0  9994,2 51888  53.2170  48.1224 0001219  80.5164 279.5966 15.08840831 88433,6917.878,95.438,540.586,538.9,0.0
51888.0,STARLINK-3536,PAYLOAD,2023-09-29 12:17:55,15.08841573,0.000143,53.2177,44.2576,75.6821,284.433,8.1055e-05,1.002e-05,0.0,0 STARLINK-3536,1 51888U 22022AN  23272.51244286  .00001002  00000-0  81055-4 0  9992,2 51888  53.2177  44.2576 0001430  75.6821 284.4330 15.08841573 88565,6917.876,95.437,540.73,538.751,0.0
51888.0,STARLINK-3536,PAYLOAD,2023-09-29 13:53:18,15.08842427,0.0001281,53.2181,43.9605,74.833,285.2804,7.9919e-05,9.84e-06,0.0,0 STARLINK-3536,1 51888U 22022AN  23272.57868242  .00000984  00000-0  79919-4 0  9996,2 51888  53.2181  43.9605 0001281  74.8330 285.2804 15.08842427 88574,6917.873,95.437,540.624,538.852,0.0
51888.0,STARLINK-3536,PAYLOAD,2023-09-29 15:28:40,15.08849919,0.0001324,53.2182,43.6616,85.217,274.8973,5.3357e-05,5.62e-06,0.0,0 STARLINK-3536,1 51888U 22022AN  23272.64491779  .00000562  00000-0  53357-4 0  9991,2 51888  53.2182  43.6616 0001324  85.2170 274.8973 15.08849919 88585,6917.85,95.437,540.631,538.799,0.0
51888.0,STARLINK-3536,PAYLOAD,2023-09-30 15:19:28,15.08845602,0.0001414,53.219,39.2021,73.4559,286.6589,8.8785e-05,1.126e-05,0.0,0 STARLINK-3536,1 51888U 22022AN  23273.63851909  .00001126  00000-0  88785-4 0  9996,2 51888  53.2190  39.2021 0001414  73.4559 286.6589 15.08845602 88731,6917.863,95.437,540.706,538.75,0.0
51888.0,STARLINK-3536,PAYLOAD,2023-10-01 13:34:51,15.08851038,0.00014,53.219,35.0391,77.9929,282.122,0.00010986,1.461e-05,0.0,0 STARLINK-3536,1 51888U 22022AN  23274.56587451  .00001461  00000-0  10986-3 0  9996,2 51888  53.2190  35.0391 0001400  77.9929 282.1220 15.08851038 88878,6917.847,95.437,540.68,538.743,0.0
51888.0,STARLINK-3536,PAYLOAD,2023-10-01 15:10:14,15.08860952,0.0001334,53.2185,34.7416,80.1775,279.9367,0.00026675,3.962e-05,0.0,0 STARLINK-3536,1 51888U 22022AN  23274.63210914  .00003962  00000-0  26675-3 0  9991,2 51888  53.2185  34.7416 0001334  80.1775 279.9367 15.08860952 88889,6917.816,95.436,540.604,538.759,0.0
51888.0,STARLINK-3536,PAYLOAD,2023-10-02 00:42:33,15.08851838,0.0001262,53.2191,32.9585,99.7904,260.3231,0.00017353,2.476e-05,0.0,0 STARLINK-3536,1 51888U 22022AN  23275.02954923  .00002476  00000-0  17353-3 0  9992,2 51888  53.2191  32.9585 0001262  99.7904 260.3231 15.08851838 88947,6917.844,95.437,540.582,538.836,0.0
51888.0,STARLINK-3536,PAYLOAD,2023-10-02 07:04:06,15.08831765,0.0002025,53.2193,31.7687,82.0452,278.0769,-0.00017989,-3.149e-05,0.0,0 STARLINK-3536,1 51888U 22022AN  23275.29452286 -.00003149  00000-0 -17989-3 0  9991,2 51888  53.2193  31.7687 0002025  82.0452 278.0769 15.08831765 88983,6917.906,95.438,541.171,538.37,0.0
51888.0,STARLINK-3536,PAYLOAD,2023-10-02 15:01:02,15.0883706,0.0001553,53.2191,30.2815,81.0708,279.046,-7.2417e-05,-1.44e-05,0.0,0 STARLINK-3536,1 51888U 22022AN  23275.62572109 -.00001440  00000-0 -72417-4 0  9995,2 51888  53.2191  30.2815 0001553  81.0708 279.0460 15.08837060 89036,6917.889,95.438,540.829,538.68,0.0
51888.0,STARLINK-3536,PAYLOAD,2023-10-03 13:16:26,15.08845511,0.0001484,53.2179,26.1187,84.2476,275.8685,1.5587e-06,-2.63e-06,0.0,0 STARLINK-3536,1 51888U 22022AN  23276.55307986 -.00000263  00000-0  15587-5 0  9994,2 51888  53.2179  26.1187 0001484  84.2476 275.8685 15.08845511 89176,6917.864,95.437,540.755,538.702,0.0
51888.0,STARLINK-3536,PAYLOAD,2023-10-03 14:51:49,15.0884921,0.0001579,53.2185,25.8223,86.6943,273.423,7.2929e-05,8.73e-06,0.0,0 STARLINK-3536,1 51888U 22022AN  23276.61931785  .00000873  00000-0  72929-4 0  9999,2 51888  53.2185  25.8223 0001579  86.6943 273.4230 15.08849210 89181,6917.852,95.437,540.81,538.625,0.0
51888.0,STARLINK-3536,PAYLOAD,2023-10-04 11:31:50,15.08838884,0.0001663,53.2183,21.9564,84.6344,275.4838,0.00029164,4.356e-05,0.0,0 STARLINK-3536,1 51888U 22022AN  23277.48044613  .00004356  00000-0  29164-3 0  9992,2 51888  53.2183  21.9564 0001663  84.6344 275.4838 15.08838884 89317,6917.884,95.438,540.899,538.598,0.0
